start=new Date('2021-12-17T00:00:00.000Z').valueOf();
sats=[{"MEAN_ANOMALY":"288.5129","REV_AT_EPOCH":"4358","ELEMENT_SET_NO":"999","TLE_LINE2":"2 47825  53.0573 341.5863 0002481  71.6130 288.5129 15.06389468 43589","REF_FRAME":"TEME","CLASSIFICATION_TYPE":"U","OBJECT_ID":"2021-018AQ","COUNTRY_CODE":"US","INCLINATION":"53.0573","MEAN_MOTION_DOT":"-0.00000327","MEAN_ELEMENT_THEORY":"SGP4","NORAD_CAT_ID":"47825","OBJECT_TYPE":"PAYLOAD","RA_OF_ASC_NODE":"341.5863","SEMIMAJOR_AXIS":"6925.381","OBJECT_NAME":"STARLINK-2410","BSTAR":"-0.00000305840000","DECAY_DATE":null,"SITE":"AFETR","MEAN_MOTION":"15.06389468","MEAN_MOTION_DDOT":"0.0000000000000","GP_ID":"191837357","ECCENTRICITY":"0.00024810","PERIAPSIS":"545.528","ARG_OF_PERICENTER":"71.6130","EPOCH":"2021-12-16T23:33:23.476608","PERIOD":"95.593","LAUNCH_DATE":"2021-03-11","EPHEMERIS_TYPE":"0","TLE_LINE1":"1 47825U 21018AQ  21350.98152172 -.00000327  00000-0 -30584-5 0  9993","FILE":"3242154","CENTER_NAME":"EARTH","APOAPSIS":"548.964","RCS_SIZE":"LARGE","TIME_SYSTEM":"UTC"},{"GP_ID":"191860684","ECCENTRICITY":"0.00018700","EPOCH":"2021-12-16T17:05:54.292416","ARG_OF_PERICENTER":"53.1900","PERIAPSIS":"545.924","FILE":"3242223","TLE_LINE1":"1 47826U 21018AR  21350.71243394  .00000009  00000-0  19532-4 0  9996","EPHEMERIS_TYPE":"0","LAUNCH_DATE":"2021-03-11","PERIOD":"95.592","APOAPSIS":"548.514","RCS_SIZE":"LARGE","CENTER_NAME":"EARTH","TIME_SYSTEM":"UTC","REV_AT_EPOCH":"4388","MEAN_ANOMALY":"306.9260","ELEMENT_SET_NO":"999","CLASSIFICATION_TYPE":"U","OBJECT_ID":"2021-018AR","REF_FRAME":"TEME","TLE_LINE2":"2 47826  53.0566 342.8079 0001870  53.1900 306.9260 15.06398171 43881","INCLINATION":"53.0566","COUNTRY_CODE":"US","OBJECT_TYPE":"PAYLOAD","NORAD_CAT_ID":"47826","MEAN_MOTION_DOT":"0.00000009","MEAN_ELEMENT_THEORY":"SGP4","SEMIMAJOR_AXIS":"6925.354","RA_OF_ASC_NODE":"342.8079","BSTAR":"0.00001953200000","OBJECT_NAME":"STARLINK-2411","MEAN_MOTION_DDOT":"0.0000000000000","MEAN_MOTION":"15.06398171","SITE":"AFETR","DECAY_DATE":null},{"ELEMENT_SET_NO":"999","MEAN_ANOMALY":"301.1012","REV_AT_EPOCH":"4408","COUNTRY_CODE":"US","INCLINATION":"53.0560","REF_FRAME":"TEME","TLE_LINE2":"2 47827  53.0560 332.6955 0001948  59.0168 301.1012 15.06397837 44086","OBJECT_ID":"2021-018AS","CLASSIFICATION_TYPE":"U","RA_OF_ASC_NODE":"332.6955","SEMIMAJOR_AXIS":"6925.355","MEAN_MOTION_DOT":"0.00002075","MEAN_ELEMENT_THEORY":"SGP4","NORAD_CAT_ID":"47827","OBJECT_TYPE":"PAYLOAD","DECAY_DATE":null,"SITE":"AFETR","MEAN_MOTION":"15.06397837","MEAN_MOTION_DDOT":"0.0000000000000","OBJECT_NAME":"STARLINK-2413","BSTAR":"0.00015819000000","ECCENTRICITY":"0.00019480","GP_ID":"191860934","PERIAPSIS":"545.871","EPOCH":"2021-12-16T17:43:01.256736","ARG_OF_PERICENTER":"59.0168","PERIOD":"95.592","LAUNCH_DATE":"2021-03-11","TLE_LINE1":"1 47827U 21018AS  21350.73820899  .00002075  00000-0  15819-3 0  9998","FILE":"3242223","EPHEMERIS_TYPE":"0","TIME_SYSTEM":"UTC","CENTER_NAME":"EARTH","RCS_SIZE":"LARGE","APOAPSIS":"548.569"},{"PERIOD":"95.592","LAUNCH_DATE":"2021-03-11","EPHEMERIS_TYPE":"0","TLE_LINE1":"1 47828U 21018AT  21350.49772302 -.00000081  00000-0  13495-4 0  9992","FILE":"3241867","CENTER_NAME":"EARTH","RCS_SIZE":"LARGE","APOAPSIS":"548.449","TIME_SYSTEM":"UTC","ECCENTRICITY":"0.00017880","GP_ID":"191828543","PERIAPSIS":"545.972","ARG_OF_PERICENTER":"55.8283","EPOCH":"2021-12-16T11:56:43.268928","MEAN_ELEMENT_THEORY":"SGP4","MEAN_MOTION_DOT":"-0.00000081","NORAD_CAT_ID":"47828","OBJECT_TYPE":"PAYLOAD","RA_OF_ASC_NODE":"353.7694","SEMIMAJOR_AXIS":"6925.345","OBJECT_NAME":"STARLINK-2415","BSTAR":"0.00001349500000","DECAY_DATE":null,"MEAN_MOTION":"15.06401015","SITE":"AFETR","MEAN_MOTION_DDOT":"0.0000000000000","MEAN_ANOMALY":"304.2875","REV_AT_EPOCH":"4371","ELEMENT_SET_NO":"999","REF_FRAME":"TEME","TLE_LINE2":"2 47828  53.0565 353.7694 0001788  55.8283 304.2875 15.06401015 43714","OBJECT_ID":"2021-018AT","CLASSIFICATION_TYPE":"U","COUNTRY_CODE":"US","INCLINATION":"53.0565"},{"ELEMENT_SET_NO":"999","MEAN_ANOMALY":"297.9203","REV_AT_EPOCH":"4373","COUNTRY_CODE":"US","INCLINATION":"53.0570","CLASSIFICATION_TYPE":"U","OBJECT_ID":"2021-018AU","REF_FRAME":"TEME","TLE_LINE2":"2 47829  53.0570 352.7966 0001705  62.1958 297.9203 15.06395646 43738","RA_OF_ASC_NODE":"352.7966","SEMIMAJOR_AXIS":"6925.362","OBJECT_TYPE":"PAYLOAD","MEAN_ELEMENT_THEORY":"SGP4","MEAN_MOTION_DOT":"0.00000231","NORAD_CAT_ID":"47829","MEAN_MOTION_DDOT":"0.0000000000000","DECAY_DATE":null,"SITE":"AFETR","MEAN_MOTION":"15.06395646","BSTAR":"0.00003442100000","OBJECT_NAME":"STARLINK-2416","GP_ID":"191861437","ECCENTRICITY":"0.00017050","ARG_OF_PERICENTER":"62.1958","EPOCH":"2021-12-16T17:09:53.197920","PERIAPSIS":"546.046","LAUNCH_DATE":"2021-03-11","TLE_LINE1":"1 47829U 21018AU  21350.71519905  .00000231  00000-0  34421-4 0  9994","FILE":"3242223","EPHEMERIS_TYPE":"0","PERIOD":"95.592","TIME_SYSTEM":"UTC","CENTER_NAME":"EARTH","APOAPSIS":"548.408","RCS_SIZE":"MEDIUM"},{"CENTER_NAME":"EARTH","APOAPSIS":"548.413","RCS_SIZE":"MEDIUM","TIME_SYSTEM":"UTC","PERIOD":"95.592","LAUNCH_DATE":"2021-03-11","EPHEMERIS_TYPE":"0","TLE_LINE1":"1 47830U 21018AV  21350.71151424 -.00000129  00000-0  10245-4 0  9999","FILE":"3242223","PERIAPSIS":"546.043","EPOCH":"2021-12-16T17:04:34.830336","ARG_OF_PERICENTER":"60.6200","ECCENTRICITY":"0.00017110","GP_ID":"191860185","OBJECT_NAME":"STARLINK-2419","BSTAR":"0.00001024500000","DECAY_DATE":null,"MEAN_MOTION":"15.06395263","SITE":"AFETR","MEAN_MOTION_DDOT":"0.0000000000000","MEAN_MOTION_DOT":"-0.00000129","MEAN_ELEMENT_THEORY":"SGP4","NORAD_CAT_ID":"47830","OBJECT_TYPE":"PAYLOAD","RA_OF_ASC_NODE":"352.8131","SEMIMAJOR_AXIS":"6925.363","REF_FRAME":"TEME","TLE_LINE2":"2 47830  53.0562 352.8131 0001711  60.6200 299.4959 15.06395263 43736","OBJECT_ID":"2021-018AV","CLASSIFICATION_TYPE":"U","COUNTRY_CODE":"US","INCLINATION":"53.0562","MEAN_ANOMALY":"299.4959","REV_AT_EPOCH":"4373","ELEMENT_SET_NO":"999"},{"BSTAR":"0.00001810700000","OBJECT_NAME":"STARLINK-2420","MEAN_MOTION_DDOT":"0.0000000000000","MEAN_MOTION":"15.06406677","SITE":"AFETR","DECAY_DATE":null,"OBJECT_TYPE":"PAYLOAD","NORAD_CAT_ID":"47831","MEAN_ELEMENT_THEORY":"SGP4","MEAN_MOTION_DOT":"-0.00000012","SEMIMAJOR_AXIS":"6925.328","RA_OF_ASC_NODE":"328.0242","OBJECT_ID":"2021-018AW","CLASSIFICATION_TYPE":"U","TLE_LINE2":"2 47831  53.0577 328.0242 0001905  54.9979 305.1189 15.06406677 44132","REF_FRAME":"TEME","INCLINATION":"53.0577","COUNTRY_CODE":"US","REV_AT_EPOCH":"4413","MEAN_ANOMALY":"305.1189","ELEMENT_SET_NO":"999","APOAPSIS":"548.512","RCS_SIZE":"LARGE","CENTER_NAME":"EARTH","TIME_SYSTEM":"UTC","TLE_LINE1":"1 47831U 21018AW  21350.64561984 -.00000012  00000-0  18107-4 0  9994","FILE":"3242223","EPHEMERIS_TYPE":"0","LAUNCH_DATE":"2021-03-11","PERIOD":"95.592","EPOCH":"2021-12-16T15:29:41.554176","ARG_OF_PERICENTER":"54.9979","PERIAPSIS":"545.874","ECCENTRICITY":"0.00019050","GP_ID":"191860435"},{"EPHEMERIS_TYPE":"0","TLE_LINE1":"1 47832U 21018AX  21350.99992946  .00001662  00000-0  13043-3 0  9993","FILE":"3242159","LAUNCH_DATE":"2021-03-11","PERIOD":"95.592","RCS_SIZE":"LARGE","APOAPSIS":"548.533","CENTER_NAME":"EARTH","TIME_SYSTEM":"UTC","ECCENTRICITY":"0.00019320","GP_ID":"191837815","ARG_OF_PERICENTER":"54.5245","EPOCH":"2021-12-16T23:59:53.905344","PERIAPSIS":"545.857","OBJECT_TYPE":"PAYLOAD","NORAD_CAT_ID":"47832","MEAN_MOTION_DOT":"0.00001662","MEAN_ELEMENT_THEORY":"SGP4","SEMIMAJOR_AXIS":"6925.330","RA_OF_ASC_NODE":"341.5161","BSTAR":"0.00013043000000","OBJECT_NAME":"STARLINK-2422","MEAN_MOTION_DDOT":"0.0000000000000","MEAN_MOTION":"15.06406203","SITE":"AFETR","DECAY_DATE":null,"REV_AT_EPOCH":"4359","MEAN_ANOMALY":"305.5924","ELEMENT_SET_NO":"999","OBJECT_ID":"2021-018AX","CLASSIFICATION_TYPE":"U","REF_FRAME":"TEME","TLE_LINE2":"2 47832  53.0568 341.5161 0001932  54.5245 305.5924 15.06406203 43590","INCLINATION":"53.0568","COUNTRY_CODE":"US"},{"COUNTRY_CODE":"US","INCLINATION":"53.0570","OBJECT_ID":"2021-018AY","CLASSIFICATION_TYPE":"U","REF_FRAME":"TEME","TLE_LINE2":"2 47833  53.0570 342.2942 0001815  59.0115 301.1052 15.06402158 43954","ELEMENT_SET_NO":"999","MEAN_ANOMALY":"301.1052","REV_AT_EPOCH":"4395","MEAN_MOTION_DDOT":"0.0000000000000","DECAY_DATE":null,"SITE":"AFETR","MEAN_MOTION":"15.06402158","BSTAR":"0.00000604790000","OBJECT_NAME":"STARLINK-2423","RA_OF_ASC_NODE":"342.2942","SEMIMAJOR_AXIS":"6925.342","OBJECT_TYPE":"PAYLOAD","MEAN_ELEMENT_THEORY":"SGP4","MEAN_MOTION_DOT":"-0.00000192","NORAD_CAT_ID":"47833","EPOCH":"2021-12-16T19:50:26.338272","ARG_OF_PERICENTER":"59.0115","PERIAPSIS":"545.950","ECCENTRICITY":"0.00018150","GP_ID":"191861937","TIME_SYSTEM":"UTC","CENTER_NAME":"EARTH","APOAPSIS":"548.464","RCS_SIZE":"LARGE","LAUNCH_DATE":"2021-03-11","TLE_LINE1":"1 47833U 21018AY  21350.82669373 -.00000192  00000-0  60479-5 0  9996","EPHEMERIS_TYPE":"0","FILE":"3242223","PERIOD":"95.592"},{"PERIOD":"95.592","LAUNCH_DATE":"2021-03-11","TLE_LINE1":"1 47834U 21018AZ  21350.77140427  .00001217  00000-0  10055-3 0  9996","FILE":"3242223","EPHEMERIS_TYPE":"0","TIME_SYSTEM":"UTC","CENTER_NAME":"EARTH","RCS_SIZE":"LARGE","APOAPSIS":"548.399","GP_ID":"191860685","ECCENTRICITY":"0.00017310","PERIAPSIS":"546.001","ARG_OF_PERICENTER":"61.8823","EPOCH":"2021-12-16T18:30:49.328928","RA_OF_ASC_NODE":"342.5382","SEMIMAJOR_AXIS":"6925.335","MEAN_MOTION_DOT":"0.00001217","MEAN_ELEMENT_THEORY":"SGP4","NORAD_CAT_ID":"47834","OBJECT_TYPE":"PAYLOAD","DECAY_DATE":null,"SITE":"AFETR","MEAN_MOTION":"15.06404378","MEAN_MOTION_DDOT":"0.0000000000000","OBJECT_NAME":"STARLINK-2424","BSTAR":"0.00010055000000","ELEMENT_SET_NO":"999","MEAN_ANOMALY":"298.2341","REV_AT_EPOCH":"4394","COUNTRY_CODE":"US","INCLINATION":"53.0567","TLE_LINE2":"2 47834  53.0567 342.5382 0001731  61.8823 298.2341 15.06404378 43948","REF_FRAME":"TEME","OBJECT_ID":"2021-018AZ","CLASSIFICATION_TYPE":"U"}];
